NORAD_CAT_ID,OBJECT_NAME,OBJECT_TYPE,EPOCH,MEAN_MOTION,ECCENTRICITY,INCLINATION,RA_OF_ASC_NODE,ARG_OF_PERICENTER,MEAN_ANOMALY,BSTAR,MEAN_MOTION_DOT,MEAN_MOTION_DDOT,TLE_LINE0,TLE_LINE1,TLE_LINE2,SEMIMAJOR_AXIS,PERIOD,APOGEE,PERIGEE,DECAYED
55923.0,STARLINK-5854,PAYLOAD,2023-09-02 20:22:01,14.98328234,0.0002772,69.9997,101.1841,277.8113,82.2731,-5.5102e-05,-7.5e-06,0.0,0 STARLINK-5854,1 55923U 23037K   23245.84862530 -.00000750  00000-0 -55102-4 0  9992,2 55923  69.9997 101.1841 0002772 277.8113  82.2731 14.98328234 25855,6950.198,96.107,573.99,570.137,0.0
55923.0,STARLINK-5854,PAYLOAD,2023-09-03 07:34:57,14.98328747,0.0002938,70.0017,100.0057,273.5869,86.4954,-5.1693e-05,-7.1e-06,0.0,0 STARLINK-5854,1 55923U 23037K   23246.31594354 -.00000710  00000-0 -51693-4 0  9998,2 55923  70.0017 100.0057 0002938 273.5869  86.4954 14.98328747 25923,6950.197,96.107,574.104,570.02,0.0
55923.0,STARLINK-5854,PAYLOAD,2023-09-03 18:47:53,14.98329851,0.000299,69.9998,98.829,271.2792,88.8024,-6.654e-05,-8.87e-06,0.0,0 STARLINK-5854,1 55923U 23037K   23246.78326317 -.00000887  00000-0 -66540-4 0  9993,2 55923  69.9998  98.8290 0002990 271.2792  88.8024 14.98329851 26336,6950.193,96.107,574.136,569.98,0.0
55923.0,STARLINK-5854,PAYLOAD,2023-09-04 07:36:58,14.98326472,0.0002879,70.0003,97.4823,271.9109,88.1721,-1.6501e-05,-2.9e-06,0.0,0 STARLINK-5854,1 55923U 23037K   23247.31734402 -.00000290  00000-0 -16501-4 0  9991,2 55923  70.0003  97.4823 0002879 271.9109  88.1721 14.98326472 26072,6950.204,96.107,574.07,570.068,0.0
55923.0,STARLINK-5854,PAYLOAD,2023-09-04 20:26:03,14.98324929,0.000296,69.9995,96.1351,270.5297,89.5523,6.6737e-06,-1.3e-07,0.0,0 STARLINK-5854,1 55923U 23037K   23247.85142515 -.00000013  00000-0  66737-5 0  9997,2 55923  69.9995  96.1351 0002960 270.5297  89.5523 14.98324929 26491,6950.209,96.107,574.131,570.016,0.0
55923.0,STARLINK-5854,PAYLOAD,2023-09-05 14:03:31,14.98329153,0.000305,69.9999,94.2841,269.3617,90.7192,5.807e-05,6e-06,0.0,0 STARLINK-5854,1 55923U 23037K   23248.58578153  .00000600  00000-0  58070-4 0  9990,2 55923  69.9999  94.2841 0003050 269.3617  90.7192 14.98329153 26266,6950.196,96.107,574.18,569.941,0.0
55923.0,STARLINK-5854,PAYLOAD,2023-09-05 20:28:03,14.98333545,0.0003047,70.0,93.6106,268.9114,91.1696,4.1774e-05,4.06e-06,0.0,0 STARLINK-5854,1 55923U 23037K   23248.85281898  .00000406  00000-0  41774-4 0  9994,2 55923  70.0000  93.6106 0003047 268.9114  91.1696 14.98333545 26648,6950.182,96.107,574.165,569.929,0.0
55923.0,STARLINK-5854,PAYLOAD,2023-09-06 01:16:27,14.98334352,0.0003041,69.9999,93.1056,268.9846,91.0965,4.8985e-05,4.92e-06,0.0,0 STARLINK-5854,1 55923U 23037K   23249.05309781  .00000492  00000-0  48985-4 0  9995,2 55923  69.9999  93.1056 0003041 268.9846  91.0965 14.98334352 26338,6950.179,96.107,574.158,569.931,0.0
55923.0,STARLINK-5854,PAYLOAD,2023-09-06 20:30:04,14.98328915,0.0003027,70.0001,91.0859,268.609,91.4722,2.8197e-05,2.43e-06,0.0,0 STARLINK-5854,1 55923U 23037K   23249.85422113  .00000243  00000-0  28197-4 0  9995,2 55923  70.0001  91.0859 0003027 268.6090  91.4722 14.98328915 26451,6950.196,96.107,574.165,569.957,0.0
55923.0,STARLINK-5854,PAYLOAD,2023-09-07 01:18:28,14.98330741,0.0003031,69.9999,90.5807,268.8516,91.2296,4.4609e-05,4.39e-06,0.0,0 STARLINK-5854,1 55923U 23037K   23250.05449943  .00000439  00000-0  44609-4 0  9992,2 55923  69.9999  90.5807 0003031 268.8516  91.2296 14.98330741 26826,6950.191,96.107,574.162,569.949,0.0
55923.0,STARLINK-5854,PAYLOAD,2023-09-07 12:31:25,14.98331708,0.0002975,69.9996,89.4021,269.6727,90.4091,-9.8103e-06,-2.1e-06,0.0,0 STARLINK-5854,1 55923U 23037K   23250.52181977 -.00000210  00000-0 -98103-5 0  9992,2 55923  69.9996  89.4021 0002975 269.6727  90.4091 14.98331708 26555,6950.188,96.107,574.12,569.985,0.0
55923.0,STARLINK-5854,PAYLOAD,2023-09-08 14:09:34,14.98330609,0.0002925,69.9988,86.7088,271.5276,88.5548,-9.1678e-06,-2.02e-06,0.0,0 STARLINK-5854,1 55923U 23037K   23251.58997829 -.00000202  00000-0 -91678-5 0  9991,2 55923  69.9988  86.7088 0002925 271.5276  88.5548 14.98330609 26717,6950.191,96.107,574.089,570.023,0.0
55923.0,STARLINK-5854,PAYLOAD,2023-09-08 18:57:58,14.98330295,0.000299,69.9999,86.2044,268.9636,91.118,-2.4235e-05,-3.82e-06,0.0,0 STARLINK-5854,1 55923U 23037K   23251.79025859 -.00000382  00000-0 -24235-4 0  9992,2 55923  69.9999  86.2044 0002990 268.9636  91.1180 14.98330295 27082,6950.192,96.107,574.135,569.979,0.0
55923.0,STARLINK-5854,PAYLOAD,2023-09-09 14:11:35,14.98335593,0.0002977,70.0005,84.1839,267.5388,92.543,-0.00017181,-2.143e-05,0.0,0 STARLINK-5854,1 55923U 23037K   23252.59138035 -.00002143  00000-0 -17181-3 0  9990,2 55923  70.0005  84.1839 0002977 267.5388  92.5430 14.98335593 26860,6950.176,96.107,574.11,569.972,0.0
55923.0,STARLINK-5854,PAYLOAD,2023-09-09 18:59:59,14.98328549,0.0002796,70.0001,83.6796,266.5992,93.4848,-6.8893e-05,-9.15e-06,0.0,0 STARLINK-5854,1 55923U 23037K   23252.79166195 -.00000915  00000-0 -68893-4 0  9992,2 55923  70.0001  83.6796 0002796 266.5992  93.4848 14.98328549 27239,6950.197,96.107,574.006,570.119,0.0
55923.0,STARLINK-5854,PAYLOAD,2023-09-10 14:13:36,14.98327275,0.0003036,69.9999,81.6593,266.6379,93.4433,4.5803e-05,4.54e-06,0.0,0 STARLINK-5854,1 55923U 23037K   23253.59277857  .00000454  00000-0  45803-4 0  9991,2 55923  69.9999  81.6593 0003036 266.6379  93.4433 14.98327275 27014,6950.201,96.107,574.176,569.956,0.0
55923.0,STARLINK-5854,PAYLOAD,2023-09-10 19:02:00,14.98327318,0.000306,70.0002,81.1541,269.5338,90.5471,5.4885e-05,5.62e-06,0.0,0 STARLINK-5854,1 55923U 23037K   23253.79305853  .00000562  00000-0  54885-4 0  9991,2 55923  70.0002  81.1541 0003060 269.5338  90.5471 14.98327318 27382,6950.201,96.107,574.193,569.939,0.0
55923.0,STARLINK-5854,PAYLOAD,2023-09-11 14:15:37,14.98325221,0.0003152,70.0,79.1343,269.4783,90.6015,8.6306e-05,9.37e-06,0.0,0 STARLINK-5854,1 55923U 23037K   23254.59417896  .00000937  00000-0  86306-4 0  9990,2 55923  70.0000  79.1343 0003152 269.4783  90.6015 14.98325221 27164,6950.208,96.107,574.263,569.882,0.0
55923.0,STARLINK-5854,PAYLOAD,2023-09-11 20:40:09,14.98320447,0.0003029,70.0001,78.4611,268.316,91.7652,0.00020595,2.365e-05,0.0,0 STARLINK-5854,1 55923U 23037K   23254.86121891  .00002365  00000-0  20595-3 0  9991,2 55923  70.0001  78.4611 0003029 268.3160  91.7652 14.98320447 27541,6950.222,96.108,574.193,569.982,0.0
55923.0,STARLINK-5854,PAYLOAD,2023-09-12 12:41:29,14.98332585,0.0003105,70.0003,76.7777,270.5497,89.5306,9.1678e-06,1.6e-07,0.0,0 STARLINK-5854,1 55923U 23037K   23255.52881582  .00000016  00000-0  91678-5 0  9998,2 55923  70.0003  76.7777 0003105 270.5497  89.5306 14.98332585 27301,6950.185,96.107,574.208,569.892,0.0
55923.0,STARLINK-5854,PAYLOAD,2023-09-12 15:53:45,14.98331854,0.0003118,70.0002,76.4411,270.5017,89.5785,2.6256e-06,-6.2e-07,0.0,0 STARLINK-5854,1 55923U 23037K   23255.66233617 -.00000062  00000-0  26256-5 0  9995,2 55923  70.0002  76.4411 0003118 270.5017  89.5785 14.98331854 27662,6950.187,96.107,574.219,569.885,0.0
55923.0,STARLINK-5854,PAYLOAD,2023-09-12 20:42:09,14.98334789,0.0003107,70.0002,75.936,270.8262,89.2541,3.5476e-05,3.3e-06,0.0,0 STARLINK-5854,1 55923U 23037K   23255.86261298  .00000330  00000-0  35476-4 0  9993,2 55923  70.0002  75.9360 0003107 270.8262  89.2541 14.98334789 27355,6950.178,96.107,574.203,569.884,0.0
55923.0,STARLINK-5854,PAYLOAD,2023-09-13 12:43:30,14.98333644,0.0003097,70.0,74.2528,270.8877,89.1927,1.999e-05,1.46e-06,0.0,0 STARLINK-5854,1 55923U 23037K   23256.53021208  .00000146  00000-0  19990-4 0  9991,2 55923  70.0000  74.2528 0003097 270.8877  89.1927 14.98333644 27458,6950.182,96.107,574.199,569.894,0.0
55923.0,STARLINK-5854,PAYLOAD,2023-09-13 17:31:54,14.98333283,0.0003105,70.0,73.7478,270.8498,89.2306,1.5636e-05,9.4e-07,0.0,0 STARLINK-5854,1 55923U 23037K   23256.73049186  .00000094  00000-0  15636-4 0  9993,2 55923  70.0000  73.7478 0003105 270.8498  89.2306 14.98333283 27827,6950.183,96.107,574.206,569.89,0.0
55923.0,STARLINK-5854,PAYLOAD,2023-09-13 20:44:10,14.98334686,0.000302,70.0002,73.4117,269.7993,90.282,4.1231e-05,3.99e-06,0.0,0 STARLINK-5854,1 55923U 23037K   23256.86400985  .00000399  00000-0  41231-4 0  9993,2 55923  70.0002  73.4117 0003020 269.7993  90.2820 14.98334686 27505,6950.178,96.107,574.142,569.944,0.0
55923.0,STARLINK-5854,PAYLOAD,2023-09-14 12:45:31,14.98326949,0.0002812,70.0005,71.7284,262.8295,97.2545,-5.934e-05,-8.01e-06,0.0,0 STARLINK-5854,1 55923U 23037K   23257.53161651 -.00000801  00000-0 -59340-4 0  9992,2 55923  70.0005  71.7284 0002812 262.8295  97.2545 14.98326949 27606,6950.202,96.107,574.022,570.113,0.0
55923.0,STARLINK-5854,PAYLOAD,2023-09-14 17:33:56,14.98324838,0.0002866,70.0005,71.2232,267.2007,92.8824,-8.0458e-05,-1.053e-05,0.0,0 STARLINK-5854,1 55923U 23037K   23257.73189898 -.00001053  00000-0 -80458-4 0  9991,2 55923  70.0005  71.2232 0002866 267.2007  92.8824 14.98324838 27979,6950.209,96.107,574.066,570.082,0.0
55923.0,STARLINK-5854,PAYLOAD,2023-09-14 20:46:12,14.98323513,0.0002896,70.0005,70.8867,266.7643,93.3184,-9.598e-05,-1.238e-05,0.0,0 STARLINK-5854,1 55923U 23037K   23257.86542055 -.00001238  00000-0 -95980-4 0  9994,2 55923  70.0005  70.8867 0002896 266.7643  93.3184 14.98323513 27650,6950.213,96.107,574.091,570.065,0.0
55923.0,STARLINK-5854,PAYLOAD,2023-09-15 12:47:32,14.98332465,0.0003031,70.0004,69.2031,267.4272,92.654,-1.4965e-05,-2.72e-06,0.0,0 STARLINK-5854,1 55923U 23037K   23258.53301290 -.00000272  00000-0 -14965-4 0  9994,2 55923  70.0004  69.2031 0003031 267.4272  92.6540 14.98332465 27757,6950.185,96.107,574.157,569.944,0.0
55923.0,STARLINK-5854,PAYLOAD,2023-09-15 17:35:56,14.98331418,0.0003064,70.0004,68.698,267.7754,92.3055,-2.5384e-05,-3.96e-06,0.0,0 STARLINK-5854,1 55923U 23037K   23258.73329363 -.00000396  00000-0 -25384-4 0  9991,2 55923  70.0004  68.6980 0003064 267.7754  92.3055 14.98331418 28124,6950.189,96.107,574.183,569.924,0.0
